{
  "type": "FeatureCollection",
  "features": [
    {
      "type": "Feature",
      "properties": {
        "norad_id": 34854,
        "name": "COSMOS 2251 DEB",
        "group": "cosmos-2251-debris",
        "lat": 39.681017094388935,
        "lon": 142.79257079913398,
        "alt_km": 680.6007157506774,
        "timestamp": "2025-12-27T19:21:59.140421+00:00",
        "meta_object_name": "COSMOS 2251 DEB",
        "meta_object_id": "1993-036ABY",
        "meta_epoch": "2025-12-24T03:22:47.701632",
        "meta_mean_motion": 14.76734417,
        "meta_eccentricity": 0.00659344,
        "meta_inclination": 74.0296,
        "meta_ra_of_asc_node": 136.2324,
        "meta_arg_of_pericenter": 245.6439,
        "meta_mean_anomaly": 113.7843,
        "meta_ephemeris_type": 0,
        "meta_classification_type": "U",
        "meta_norad_cat_id": 34854,
        "meta_element_set_no": 999,
        "meta_rev_at_epoch": 72050,
        "meta_bstar": 0.00083194152,
        "meta_mean_motion_dot": 6.009e-05,
        "meta_mean_motion_ddot": 0,
        "tle_line1": "1 34854U 93036ABY 25358.14082988  .00006009  00000+0  83194-3 0  9990",
        "tle_line2": "2 34854  74.0296 136.2324 0065934 245.6439 113.7843 14.76734417720500"
      },
      "geometry": {
        "type": "Point",
        "coordinates": [
          142.79257079913398,
          39.681017094388935
        ]
      }
    },
    {
      "type": "Feature",
      "properties": {
        "norad_id": 34856,
        "name": "COSMOS 2251 DEB",
        "group": "cosmos-2251-debris",
        "lat": -66.60965864697782,
        "lon": 12.27422784486771,
        "alt_km": 555.8994414072549,
        "timestamp": "2025-12-27T19:21:59.140430+00:00",
        "meta_object_name": "COSMOS 2251 DEB",
        "meta_object_id": "1993-036ACA",
        "meta_epoch": "2025-12-27T03:53:45.464928",
        "meta_mean_motion": 15.06784803,
        "meta_eccentricity": 0.00308071,
        "meta_inclination": 73.9962,
        "meta_ra_of_asc_node": 55.1727,
        "meta_arg_of_pericenter": 190.2845,
        "meta_mean_anomaly": 201.5352,
        "meta_ephemeris_type": 0,
        "meta_classification_type": "U",
        "meta_norad_cat_id": 34856,
        "meta_element_set_no": 999,
        "meta_rev_at_epoch": 89329,
        "meta_bstar": 0.0019202331,
        "meta_mean_motion_dot": 0.00028979,
        "meta_mean_motion_ddot": 0,
        "tle_line1": "1 34856U 93036ACA 25361.16233177  .00028979  00000+0  19202-2 0  9994",
        "tle_line2": "2 34856  73.9962  55.1727 0030807 190.2845 201.5352 15.06784803893299"
      },
      "geometry": {
        "type": "Point",
        "coordinates": [
          12.27422784486771,
          -66.60965864697782
        ]
      }
    },
    {
      "type": "Feature",
      "properties": {
        "norad_id": 34857,
        "name": "COSMOS 2251 DEB",
        "group": "cosmos-2251-debris",
        "lat": -60.46005891182245,
        "lon": -71.5266830416242,
        "alt_km": 670.3865009698229,
        "timestamp": "2025-12-27T19:21:59.140438+00:00",
        "meta_object_name": "COSMOS 2251 DEB",
        "meta_object_id": "1993-036ACB",
        "meta_epoch": "2025-12-27T05:13:34.023360",
        "meta_mean_motion": 14.59036151,
        "meta_eccentricity": 0.0065094,
        "meta_inclination": 74.0154,
        "meta_ra_of_asc_node": 79.2112,
        "meta_arg_of_pericenter": 200.9762,
        "meta_mean_anomaly": 189.8523,
        "meta_ephemeris_type": 0,
        "meta_classification_type": "U",
        "meta_norad_cat_id": 34857,
        "meta_element_set_no": 999,
        "meta_rev_at_epoch": 88112,
        "meta_bstar": 0.0011356,
        "meta_mean_motion_dot": 5.469e-05,
        "meta_mean_motion_ddot": 0,
        "tle_line1": "1 34857U 93036ACB 25361.21775490  .00005469  00000+0  11356-2 0  9991",
        "tle_line2": "2 34857  74.0154  79.2112 0065094 200.9762 189.8523 14.59036151881123"
      },
      "geometry": {
        "type": "Point",
        "coordinates": [
          -71.5266830416242,
          -60.46005891182245
        ]
      }
    },
    {
      "type": "Feature",
      "properties": {
        "norad_id": 34859,
        "name": "COSMOS 2251 DEB",
        "group": "cosmos-2251-debris",
        "lat": 38.983433208264145,
        "lon": -38.33954858082709,
        "alt_km": 510.9227555776388,
        "timestamp": "2025-12-27T19:21:59.140447+00:00",
        "meta_object_name": "COSMOS 2251 DEB",
        "meta_object_id": "1993-036ACD",
        "meta_epoch": "2025-12-27T05:13:36.254208",
        "meta_mean_motion": 15.16899286,
        "meta_eccentricity": 0.0001119,
        "meta_inclination": 74.0302,
        "meta_ra_of_asc_node": 309.4885,
        "meta_arg_of_pericenter": 42.3506,
        "meta_mean_anomaly": 22.6359,
        "meta_ephemeris_type": 0,
        "meta_classification_type": "U",
        "meta_norad_cat_id": 34859,
        "meta_element_set_no": 999,
        "meta_rev_at_epoch": 88578,
        "meta_bstar": 0.0036094,
        "meta_mean_motion_dot": 0.0007182,
        "meta_mean_motion_ddot": 0,
        "tle_line1": "1 34859U 93036ACD 25361.21778072  .00071820  00000+0  36094-2 0  9992",
        "tle_line2": "2 34859  74.0302 309.4885 0001119  42.3506  22.6359 15.16899286885784"
      },
      "geometry": {
        "type": "Point",
        "coordinates": [
          -38.33954858082709,
          38.983433208264145
        ]
      }
    },
    {
      "type": "Feature",
      "properties": {
        "norad_id": 34861,
        "name": "COSMOS 2251 DEB",
        "group": "cosmos-2251-debris",
        "lat": -27.70975795654519,
        "lon": 11.393123202644642,
        "alt_km": 556.6311466738216,
        "timestamp": "2025-12-27T19:21:59.140456+00:00",
        "meta_object_name": "COSMOS 2251 DEB",
        "meta_object_id": "1993-036ACF",
        "meta_epoch": "2025-12-27T12:03:40.984416",
        "meta_mean_motion": 15.03546425,
        "meta_eccentricity": 0.0008495,
        "meta_inclination": 74.0193,
        "meta_ra_of_asc_node": 20.6725,
        "meta_arg_of_pericenter": 8.3135,
        "meta_mean_anomaly": 116.0941,
        "meta_ephemeris_type": 0,
        "meta_classification_type": "U",
        "meta_norad_cat_id": 34861,
        "meta_element_set_no": 999,
        "meta_rev_at_epoch": 88314,
        "meta_bstar": 0.0031329,
        "meta_mean_motion_dot": 0.00043038,
        "meta_mean_motion_ddot": 0,
        "tle_line1": "1 34861U 93036ACF 25361.50255769  .00043038  00000+0  31329-2 0  9996",
        "tle_line2": "2 34861  74.0193  20.6725 0008495   8.3135 116.0941 15.03546425883147"
      },
      "geometry": {
        "type": "Point",
        "coordinates": [
          11.393123202644642,
          -27.70975795654519
        ]
      }
    },
    {
      "type": "Feature",
      "properties": {
        "norad_id": 34874,
        "name": "COSMOS 2251 DEB",
        "group": "cosmos-2251-debris",
        "lat": -73.99947217481791,
        "lon": -47.499635587795346,
        "alt_km": 810.7825527079185,
        "timestamp": "2025-12-27T19:21:59.140465+00:00",
        "meta_object_name": "COSMOS 2251 DEB",
        "meta_object_id": "1993-036ACM",
        "meta_epoch": "2025-12-27T09:50:59.243424",
        "meta_mean_motion": 14.36378334,
        "meta_eccentricity": 0.0050505,
        "meta_inclination": 74.0391,
        "meta_ra_of_asc_node": 46.8204,
        "meta_arg_of_pericenter": 67.339,
        "meta_mean_anomaly": 312.2912,
        "meta_ephemeris_type": 0,
        "meta_classification_type": "U",
        "meta_norad_cat_id": 34874,
        "meta_element_set_no": 999,
        "meta_rev_at_epoch": 87255,
        "meta_bstar": 0.00086172,
        "meta_mean_motion_dot": 2.535e-05,
        "meta_mean_motion_ddot": 0,
        "tle_line1": "1 34874U 93036ACM 25361.41040791  .00002535  00000+0  86172-3 0  9991",
        "tle_line2": "2 34874  74.0391  46.8204 0050505  67.3390 312.2912 14.36378334872558"
      },
      "geometry": {
        "type": "Point",
        "coordinates": [
          -47.499635587795346,
          -73.99947217481791
        ]
      }
    },
    {
      "type": "Feature",
      "properties": {
        "norad_id": 34875,
        "name": "COSMOS 2251 DEB",
        "group": "cosmos-2251-debris",
        "lat": -68.11214705732662,
        "lon": 84.57650857938047,
        "alt_km": 726.1911211009319,
        "timestamp": "2025-12-27T19:21:59.140474+00:00",
        "meta_object_name": "COSMOS 2251 DEB",
        "meta_object_id": "1993-036ACN",
        "meta_epoch": "2025-12-26T09:03:25.523136",
        "meta_mean_motion": 14.48972349,
        "meta_eccentricity": 0.0016255,
        "meta_inclination": 74.0439,
        "meta_ra_of_asc_node": 132.6635,
        "meta_arg_of_pericenter": 255.3321,
        "meta_mean_anomaly": 135.8021,
        "meta_ephemeris_type": 0,
        "meta_classification_type": "U",
        "meta_norad_cat_id": 34875,
        "meta_element_set_no": 999,
        "meta_rev_at_epoch": 87953,
        "meta_bstar": 0.00051077,
        "meta_mean_motion_dot": 1.912e-05,
        "meta_mean_motion_ddot": 0,
        "tle_line1": "1 34875U 93036ACN 25360.37737874  .00001912  00000+0  51077-3 0  9995",
        "tle_line2": "2 34875  74.0439 132.6635 0016255 255.3321 135.8021 14.48972349879535"
      },
      "geometry": {
        "type": "Point",
        "coordinates": [
          84.57650857938047,
          -68.11214705732662
        ]
      }
    }
  ]
}